     2.10           N: GPS NAV DATA                         RINEX VERSION / TYPE
teqc  2015Nov6                          20160524 14:44:25UTCPGM / RUN BY / DATE
gfzrnx-2.1.12       FILE PROCESSING     20250424 035323 UTC COMMENT             
Linux2.6.32-279.el6.x86_64|x86_64|gcc|Win64-MinGW64|=       COMMENT             
cnvtToRINEX 2.30.0  SMO                 24-May-16 13:17 UTC COMMENT             
----------------------------------------------------------- COMMENT             
    1.5830E-08  1.4900E-08 -1.1920E-07 -1.1920E-07          ION ALPHA           
    1.0650E+05  6.5540E+04 -1.9660E+05 -1.9660E+05          ION BETA            
    2.793967723850D-09 7.993605777300D-15   503808     1893 DELTA-UTC: A0,A1,T,W
    17                                                      LEAP SECONDS        
                                                            END OF HEADER
10 16 04 19 23 59 44.0-2.337619662280e-06-9.549694368620e-12 0.000000000000e+00
    2.900000000000e+01-1.881250000000e+01 4.170530862210e-09-1.627629446310e+00
   -1.046806573870e-06 1.396423904230e-03 1.145526766780e-05 5.153687639240e+03
    2.591840000000e+05-5.401670932770e-08-4.953516966090e-01-1.024454832080e-07
    9.598059153120e-01 1.605625000000e+02-2.750632805940e+00-7.748179885650e-09
   -3.589435228670e-10 1.000000000000e+00 1.893000000000e+03 0.000000000000e+00
    2.400000000000e+00 0.000000000000e+00 2.328306436540e-09 2.900000000000e+01
    2.568780000000e+05 4.000000000000e+00                                      
10 16 04 20 01 59 44.0-2.406537532810e-06-9.549694368620e-12 0.000000000000e+00
    3.000000000000e+01-2.540625000000e+01 4.261248926690e-09-5.769158851250e-01
   -1.553446054460e-06 1.397219719370e-03 1.107901334760e-05 5.153689590450e+03
    2.663840000000e+05 5.401670932770e-08-4.954072874960e-01 3.911554813390e-08
    9.598024452700e-01 1.671250000000e+02-2.751176698400e+00-7.884256982380e-09
   -4.596620039100e-10 1.000000000000e+00 1.893000000000e+03 0.000000000000e+00
    2.400000000000e+00 0.000000000000e+00 2.328306436540e-09 3.000000000000e+01
    2.592180000000e+05 4.000000000000e+00                                      
12 16 04 20 00 00  0.0 3.769085742530e-04 1.364242052660e-12 0.000000000000e+00
    4.500000000000e+01-4.368750000000e+01 3.806587131060e-09-5.415958025190e-01
   -2.151355147360e-06 6.097346660680e-03 1.094862818720e-05 5.153752593990e+03
    2.592000000000e+05 4.097819328310e-08 2.701882599940e+00 9.126961231230e-08
    9.905409654240e-01 1.888125000000e+02 7.179212030430e-01-7.659247609840e-09
   -8.536069847290e-11 1.000000000000e+00 1.893000000000e+03 0.000000000000e+00
    2.400000000000e+00 0.000000000000e+00-1.257285475730e-08 4.500000000000e+01
    2.520360000000e+05 4.000000000000e+00                                      
12 16 04 20 02 00  0.0 3.769183531400e-04 1.364242052660e-12 0.000000000000e+00
    4.600000000000e+01-5.384375000000e+01 3.776228723660e-09 5.085088146220e-01
   -2.941116690640e-06 6.095869350250e-03 1.114234328270e-05 5.153749788280e+03
    2.664000000000e+05-2.421438694000e-08 2.701827573730e+00 9.313225746150e-08
    9.905403349070e-01 1.852500000000e+02 7.179450266640e-01-7.645675615940e-09
   -1.117903708030e-10 1.000000000000e+00 1.893000000000e+03 0.000000000000e+00
    2.400000000000e+00 0.000000000000e+00-1.257285475730e-08 4.600000000000e+01
    2.592180000000e+05 4.000000000000e+00                                      
14 16 04 20 00 00  0.0-9.305775165560e-06-2.160049916710e-12 0.000000000000e+00
    3.300000000000e+01 9.093750000000e+01 4.280535444340e-09 2.684966690930e+00
    4.697591066360e-06 8.485010359440e-03 6.757676601410e-06 5.154004016880e+03
    2.592000000000e+05 1.154839992520e-07 6.313556165300e-01-2.793967723850e-08
    9.644540405360e-01 2.502500000000e+02-1.964488747420e+00-7.920687071270e-09
    5.018066165450e-10 1.000000000000e+00 1.893000000000e+03 0.000000000000e+00
    2.400000000000e+00 0.000000000000e+00-9.313225746150e-09 3.300000000000e+01
    2.521980000000e+05 4.000000000000e+00                                      
14 16 04 20 02 00  0.0-9.321141988040e-06-2.160049916710e-12 0.000000000000e+00
    4.900000000000e+01 8.862500000000e+01 4.296250384640e-09-2.548242743210e+00
    4.602596163750e-06 8.485491271130e-03 6.724148988720e-06 5.154003124240e+03
    2.664000000000e+05 2.607703208920e-08 6.312992049460e-01-6.519258022310e-08
    9.644574608390e-01 2.529062500000e+02-1.964487284510e+00-7.883185509180e-09
    4.243033882250e-10 1.000000000000e+00 1.893000000000e+03 0.000000000000e+00
    2.400000000000e+00 0.000000000000e+00-9.313225746150e-09 4.900000000000e+01
    2.592180000000e+05 4.000000000000e+00                                      
15 16 04 20 00 00  0.0-3.072349354620e-04-1.705302565820e-12 0.000000000000e+00
    6.300000000000e+01 8.803125000000e+01 5.105212652600e-09 1.950270902620e+00
    4.563480615620e-06 8.103770553130e-03 7.743015885350e-06 5.153580179210e+03
    2.592000000000e+05-1.676380634310e-07 4.963925993960e-01 4.842877388000e-08
    9.313706163070e-01 2.151562500000e+02 4.807506155470e-01-8.443565994130e-09
    3.564434187280e-10 1.000000000000e+00 1.893000000000e+03 0.000000000000e+00
    2.400000000000e+00 0.000000000000e+00-1.071020960810e-08 6.300000000000e+01
    2.520180000000e+05 4.000000000000e+00                                      
15 16 04 20 02 00  0.0-3.072475083170e-04-1.705302565820e-12 0.000000000000e+00
    8.300000000000e+01 9.100000000000e+01 5.028423739750e-09 3.000593848580e+00
    4.693865776060e-06 8.104563574310e-03 8.098781108860e-06 5.153578256610e+03
    2.664000000000e+05-3.725290298460e-08 4.963322247670e-01-8.754432201390e-08
    9.313741126820e-01 2.084375000000e+02 4.806704564140e-01-8.268201546640e-09
    3.943021385520e-10 1.000000000000e+00 1.893000000000e+03 0.000000000000e+00
    2.400000000000e+00 0.000000000000e+00-1.071020960810e-08 8.300000000000e+01
    2.592180000000e+05 4.000000000000e+00                                      
18 16 04 20 00 00  0.0 5.065444856880e-04 4.206412995700e-12 0.000000000000e+00
    4.700000000000e+01-1.596875000000e+01 4.949491880490e-09-1.933940873290e+00
   -9.220093488690e-07 1.703268813430e-02 1.068785786630e-05 5.153678936000e+03
    2.592000000000e+05 3.855675458910e-07-5.229601045760e-01-2.048909664150e-08
    9.252634453480e-01 1.525937500000e+02-1.894667311630e+00-7.945688112660e-09
   -3.353711124100e-10 1.000000000000e+00 1.893000000000e+03 0.000000000000e+00
    2.400000000000e+00 0.000000000000e+00-1.210719347000e-08 4.700000000000e+01
    2.520180000000e+05 4.000000000000e+00                                      
18 16 04 20 02 00  0.0 5.065747536720e-04 4.206412995700e-12 0.000000000000e+00
    7.700000000000e+01-2.090625000000e+01 5.220217443010e-09-8.836716208130e-01
   -1.048669219020e-06 1.703280559740e-02 1.042895019050e-05 5.153681770320e+03
    2.664000000000e+05-1.322478055950e-07-5.230187617390e-01 3.408640623090e-07
    9.252578877220e-01 1.624375000000e+02-1.894756338970e+00-8.583214668200e-09
   -4.318037006430e-10 1.000000000000e+00 1.893000000000e+03 0.000000000000e+00
    2.400000000000e+00 0.000000000000e+00-1.210719347000e-08 7.700000000000e+01
    2.592180000000e+05 4.000000000000e+00                                      
20 16 04 20 00 00  0.0 4.070554859940e-04 2.387423592150e-12 0.000000000000e+00
    6.100000000000e+01-3.684375000000e+01 5.049853203800e-09 2.014926912190e+00
   -2.084299921990e-06 4.655639873820e-03 1.030974090100e-05 5.153728330610e+03
    2.592000000000e+05 6.519258022310e-08-5.748251074760e-01-7.636845111850e-08
    9.264784763470e-01 1.630000000000e+02 1.356150078310e+00-8.248915028990e-09
   -3.993023468310e-10 1.000000000000e+00 1.893000000000e+03 0.000000000000e+00
    2.400000000000e+00 0.000000000000e+00-8.381903171540e-09 6.100000000000e+01
    2.520180000000e+05 4.000000000000e+00                                      
20 16 04 20 02 00  0.0 4.070731811230e-04 2.387423592150e-12 0.000000000000e+00
    6.600000000000e+01-4.159375000000e+01 5.093783605100e-09 3.065188436080e+00
   -2.080574631690e-06 4.656094359230e-03 1.038424670700e-05 5.153727098460e+03
    2.664000000000e+05 3.539025783540e-08-5.748839504300e-01-3.725290298460e-09
    9.264756660820e-01 1.602812500000e+02 1.356040476480e+00-8.187483898710e-09
   -4.378753821240e-10 1.000000000000e+00 1.893000000000e+03 0.000000000000e+00
    2.400000000000e+00 0.000000000000e+00-8.381903171540e-09 6.600000000000e+01
    2.592180000000e+05 4.000000000000e+00                                      
21 16 04 20 00 00  0.0-5.197124555710e-04-1.477928890380e-12 0.000000000000e+00
    3.200000000000e+01-2.596875000000e+01 5.603090534070e-09-1.062616313250e+00
   -1.041218638420e-06 2.336671389640e-02 4.149973392490e-06 5.153624509810e+03
    2.592000000000e+05-1.993030309680e-07-1.565346450780e+00 5.159527063370e-07
    9.356655492200e-01 2.857187500000e+02-1.800492508870e+00-8.940015244660e-09
   -3.271564845240e-10 1.000000000000e+00 1.893000000000e+03 0.000000000000e+00
    2.400000000000e+00 0.000000000000e+00-1.024454832080e-08 3.200000000000e+01
    2.520180000000e+05 4.000000000000e+00                                      
21 16 04 20 02 00  0.0-5.197227001190e-04-1.477928890380e-12 0.000000000000e+00
    5.400000000000e+01-2.456250000000e+01 5.712023643000e-09-1.238971653860e-02
   -1.080334186550e-06 2.336678944990e-02 4.207715392110e-06 5.153624784470e+03
    2.664000000000e+05-2.924352884290e-07-1.565412946260e+00 1.285225152970e-07
    9.356628618400e-01 2.872500000000e+02-1.800499538190e+00-9.184668292590e-09
   -2.421529437850e-10 1.000000000000e+00 1.893000000000e+03 0.000000000000e+00
    2.400000000000e+00 0.000000000000e+00-1.024454832080e-08 5.400000000000e+01
    2.592180000000e+05 4.000000000000e+00                                      
